{
  "PH Theater": {
    "type": "Feature",
    "id": "node/68293849",
    "properties": {
      "@id": "node/68293849",
      "amenity": "parking",
      "capacity": 793,
      "capacity:disabled": 10,
      "capacity:women": 46,
      "name": "Theaterparkhaus",
      "parking": "underground",
      "toilets:wheelchair": "yes",
      "website": "http://www.stadt-muenster.de/tiefbauamt/parkleitsystem/parkhaeuser/detailansicht/parkhaus/1.html"
    },
    "geometry": {
      "type": "Point",
      "coordinates": [7.6265355, 51.9660696]
    }
  },
  "PH Münster Arkaden": {
    "type": "Feature",
    "id": "node/409003589",
    "properties": {
      "@id": "node/409003589",
      "amenity": "parking",
      "capacity": 700,
      "fee": "yes",
      "name": "Parkhaus Münster Arkaden",
      "parking": "underground",
      "website": "http://www.stadt-muenster.de/parkhaeuser/",
      "wheelchair": "yes"
    },
    "geometry": {
      "type": "Point",
      "coordinates": [7.6264224, 51.9598748]
    }
  },
  "PH Karstadt": {
    "type": "Feature",
    "id": "node/496190360",
    "properties": {
      "@id": "node/496190360",
      "amenity": "parking",
      "capacity": 183,
      "fee": "yes",
      "name": "Parkhaus Karstadt",
      "parking": "underground",
      "website": "http://www.stadt-muenster.de/parkhaeuser/",
      "wheelchair": "yes"
    },
    "geometry": {
      "type": "Point",
      "coordinates": [7.6302721, 51.9607274]
    }
  },
  "PH Bahnhofstraße": {
    "type": "Feature",
    "id": "node/387828680",
    "properties": {
      "@id": "node/387828680",
      "amenity": "parking",
      "capacity": 339,
      "capacity:disabled": 10,
      "fee": "yes",
      "name": "Parkhaus Bahnhofstraße",
      "parking": "multi-storey",
      "website": "http://www.stadt-muenster.de/parkhaeuser/"
    },
    "geometry": {
      "type": "Point",
      "coordinates": [7.6333055, 51.9556612]
    }
  },
  "PH Cineplex": {
    "type": "Feature",
    "id": "way/136053679",
    "properties": {
      "@id": "way/136053679",
      "access": "public",
      "addr:housenumber": "10",
      "addr:street": "Lippstädter Straße",
      "amenity": "parking",
      "building": "yes",
      "building:levels": 7,
      "capacity": 590,
      "capacity:disabled": "yes",
      "fee": "yes",
      "lit": "yes",
      "maxheight": 2,
      "name": "Parkhaus Cineplex",
      "opening_hours": "24/7",
      "operator": "Ruhr-Park Parkhausbetriebsgesellschaft",
      "parking": "multi-storey",
      "surface": "asphalt",
      "website": "http://www.stadt-muenster.de/tiefbauamt/parkleitsystem/",
      "wheelchair": "yes"
    },
    "geometry": {
      "type": "Point",
      "coordinates": [7.6363449, 51.9497169]
    }
  }
}
